{
  "norad_id": 62262,
  "name": "STARLINK-32632",
  "history": [
    {
      "epoch": "2026-03-28T09:55:15.923136Z",
      "apogee_km": 475.9745789071985,
      "perigee_km": 474.4750633407375,
      "latitude_deg": 3.468073999360437e-05,
      "longitude_deg": 158.1073990247429,
      "height_km": 476.00868266838734,
      "semi_major_axis_km": 6853.361821123968,
      "eccentricity": 0.0001094,
      "inclination_deg": 53.1587,
      "raan_deg": 132.7579,
      "arg_perigee_deg": 81.2291,
      "mean_anomaly_deg": 278.8834,
      "mean_motion_rev_day": 15.30196734
    }
  ]
}